start=new Date('2023-05-04T00:00:00.000Z').valueOf();
sats=[{"CENTER_NAME":"EARTH","MEAN_MOTION":"15.06427483","BSTAR":"0.00074738000000","OBJECT_NAME":"STARLINK-1122","OBJECT_ID":"2020-001AM","APOAPSIS":"547.666","ELEMENT_SET_NO":"999","REV_AT_EPOCH":"18325","RA_OF_ASC_NODE":"318.8639","MEAN_ELEMENT_THEORY":"SGP4","MEAN_MOTION_DOT":"0.00010876","OBJECT_TYPE":"PAYLOAD","PERIAPSIS":"546.593","TLE_LINE2":"2 44949  53.0540 318.8639 0000775  84.0641 276.0436 15.06427483183256","NORAD_CAT_ID":"44949","INCLINATION":"53.0540","ECCENTRICITY":"0.00007750","FILE":"3900281","GP_ID":"231194853","PERIOD":"95.590","MEAN_MOTION_DDOT":"0.0000000000000","CLASSIFICATION_TYPE":"U","DECAY_DATE":null,"EPOCH":"2023-05-03T21:47:40.975296","SITE":"AFETR","RCS_SIZE":"LARGE","MEAN_ANOMALY":"276.0436","EPHEMERIS_TYPE":"0","COUNTRY_CODE":"US","TIME_SYSTEM":"UTC","SEMIMAJOR_AXIS":"6925.264","LAUNCH_DATE":"2020-01-07","REF_FRAME":"TEME","TLE_LINE1":"1 44949U 20001AM  23123.90811314  .00010876  00000-0  74738-3 0  9995","ARG_OF_PERICENTER":"84.0641"},{"ECCENTRICITY":"0.00068890","INCLINATION":"53.0516","NORAD_CAT_ID":"44950","RCS_SIZE":"LARGE","SITE":"AFETR","CLASSIFICATION_TYPE":"U","DECAY_DATE":null,"EPOCH":"2023-05-03T20:41:30.566976","MEAN_MOTION_DDOT":"0.0000000000000","FILE":"3900281","GP_ID":"231195103","PERIOD":"93.174","PERIAPSIS":"425.219","TLE_LINE2":"2 44950  53.0516 288.2510 0006889 252.1654 107.8601 15.45500665183682","LAUNCH_DATE":"2020-01-07","SEMIMAJOR_AXIS":"6808.044","ARG_OF_PERICENTER":"252.1654","TLE_LINE1":"1 44950U 20001AN  23123.86215934  .00151977  00000-0  30646-2 0  9995","REF_FRAME":"TEME","COUNTRY_CODE":"US","EPHEMERIS_TYPE":"0","MEAN_ANOMALY":"107.8601","TIME_SYSTEM":"UTC","OBJECT_ID":"2020-001AN","OBJECT_NAME":"STARLINK-1125","BSTAR":"0.00306460000000","MEAN_MOTION":"15.45500665","CENTER_NAME":"EARTH","MEAN_MOTION_DOT":"0.00151977","MEAN_ELEMENT_THEORY":"SGP4","RA_OF_ASC_NODE":"288.2510","REV_AT_EPOCH":"18368","OBJECT_TYPE":"PAYLOAD","APOAPSIS":"434.599","ELEMENT_SET_NO":"999"},{"PERIAPSIS":"438.419","TLE_LINE2":"2 44951  53.0206 271.0408 0005574 261.5939  98.4433 15.41317854185159","INCLINATION":"53.0206","NORAD_CAT_ID":"44951","ECCENTRICITY":"0.00055740","MEAN_MOTION_DDOT":"0.0000000000000","PERIOD":"93.427","GP_ID":"231195354","FILE":"3900281","SITE":"AFETR","RCS_SIZE":"LARGE","CLASSIFICATION_TYPE":"U","DECAY_DATE":null,"EPOCH":"2023-05-03T17:47:15.595008","EPHEMERIS_TYPE":"0","MEAN_ANOMALY":"98.4433","COUNTRY_CODE":"US","TIME_SYSTEM":"UTC","SEMIMAJOR_AXIS":"6820.356","LAUNCH_DATE":"2020-01-07","REF_FRAME":"TEME","ARG_OF_PERICENTER":"261.5939","TLE_LINE1":"1 44951U 20001AP  23123.74115272  .00098707  00000-0  23114-2 0  9990","MEAN_MOTION":"15.41317854","CENTER_NAME":"EARTH","BSTAR":"0.00231140000000","OBJECT_NAME":"STARLINK-1126","OBJECT_ID":"2020-001AP","APOAPSIS":"446.023","ELEMENT_SET_NO":"999","MEAN_MOTION_DOT":"0.00098707","RA_OF_ASC_NODE":"271.0408","REV_AT_EPOCH":"18515","MEAN_ELEMENT_THEORY":"SGP4","OBJECT_TYPE":"PAYLOAD"},{"INCLINATION":"53.0535","NORAD_CAT_ID":"44952","ECCENTRICITY":"0.00009900","MEAN_MOTION_DDOT":"0.0000000000000","PERIOD":"95.590","GP_ID":"231196101","FILE":"3900281","SITE":"AFETR","RCS_SIZE":"LARGE","CLASSIFICATION_TYPE":"U","DECAY_DATE":null,"EPOCH":"2023-05-03T19:45:36.797184","PERIAPSIS":"546.422","TLE_LINE2":"2 44952  53.0535 319.2464 0000990  82.9414 277.1688 15.06434649183241","SEMIMAJOR_AXIS":"6925.242","LAUNCH_DATE":"2020-01-07","REF_FRAME":"TEME","ARG_OF_PERICENTER":"82.9414","TLE_LINE1":"1 44952U 20001AQ  23123.82334256  .00015226  00000-0  10379-2 0  9999","EPHEMERIS_TYPE":"0","MEAN_ANOMALY":"277.1688","COUNTRY_CODE":"US","TIME_SYSTEM":"UTC","OBJECT_NAME":"STARLINK-1117","OBJECT_ID":"2020-001AQ","MEAN_MOTION":"15.06434649","CENTER_NAME":"EARTH","BSTAR":"0.00103790000000","MEAN_MOTION_DOT":"0.00015226","RA_OF_ASC_NODE":"319.2464","MEAN_ELEMENT_THEORY":"SGP4","REV_AT_EPOCH":"18324","OBJECT_TYPE":"PAYLOAD","APOAPSIS":"547.793","ELEMENT_SET_NO":"999"},{"SITE":"AFETR","RCS_SIZE":"LARGE","DECAY_DATE":null,"CLASSIFICATION_TYPE":"U","EPOCH":"2023-05-03T20:10:47.241120","MEAN_MOTION_DDOT":"0.0000000000000","FILE":"3900281","GP_ID":"231194354","PERIOD":"95.590","ECCENTRICITY":"0.00011020","INCLINATION":"53.0534","NORAD_CAT_ID":"44953","TLE_LINE2":"2 44953  53.0534 319.1682 0001102  94.2723 265.8391 15.06440232184530","PERIAPSIS":"546.327","ARG_OF_PERICENTER":"94.2723","TLE_LINE1":"1 44953U 20001AR  23123.84082455  .00017129  00000-0  11648-2 0  9997","REF_FRAME":"TEME","LAUNCH_DATE":"2020-01-07","SEMIMAJOR_AXIS":"6925.225","TIME_SYSTEM":"UTC","COUNTRY_CODE":"US","EPHEMERIS_TYPE":"0","MEAN_ANOMALY":"265.8391","OBJECT_ID":"2020-001AR","OBJECT_NAME":"STARLINK-1124","BSTAR":"0.00116480000000","MEAN_MOTION":"15.06440232","CENTER_NAME":"EARTH","OBJECT_TYPE":"PAYLOAD","MEAN_MOTION_DOT":"0.00017129","REV_AT_EPOCH":"18453","MEAN_ELEMENT_THEORY":"SGP4","RA_OF_ASC_NODE":"319.1682","ELEMENT_SET_NO":"999","APOAPSIS":"547.853"},{"BSTAR":"0.00108340000000","CENTER_NAME":"EARTH","MEAN_MOTION":"15.06432416","OBJECT_ID":"2020-001AS","OBJECT_NAME":"STARLINK-1066","APOAPSIS":"547.778","ELEMENT_SET_NO":"999","REV_AT_EPOCH":"18348","MEAN_ELEMENT_THEORY":"SGP4","RA_OF_ASC_NODE":"298.8068","MEAN_MOTION_DOT":"0.00015907","OBJECT_TYPE":"PAYLOAD","PERIAPSIS":"546.450","TLE_LINE2":"2 44954  53.0529 298.8068 0000959  87.0854 273.0244 15.06432416183486","ECCENTRICITY":"0.00009590","NORAD_CAT_ID":"44954","INCLINATION":"53.0529","DECAY_DATE":null,"CLASSIFICATION_TYPE":"U","EPOCH":"2023-05-03T22:06:15.681312","SITE":"AFETR","RCS_SIZE":"LARGE","PERIOD":"95.590","GP_ID":"231194604","FILE":"3900281","MEAN_MOTION_DDOT":"0.0000000000000","COUNTRY_CODE":"US","MEAN_ANOMALY":"273.0244","EPHEMERIS_TYPE":"0","TIME_SYSTEM":"UTC","LAUNCH_DATE":"2020-01-07","SEMIMAJOR_AXIS":"6925.249","TLE_LINE1":"1 44954U 20001AS  23123.92101483  .00015907  00000-0  10834-2 0  9998","ARG_OF_PERICENTER":"87.0854","REF_FRAME":"TEME"},{"TIME_SYSTEM":"UTC","COUNTRY_CODE":"US","MEAN_ANOMALY":"262.6436","EPHEMERIS_TYPE":"0","ARG_OF_PERICENTER":"97.4691","TLE_LINE1":"1 44955U 20001AT  23123.86204194 -.00004978  00000-0 -31562-3 0  9995","REF_FRAME":"TEME","LAUNCH_DATE":"2020-01-07","SEMIMAJOR_AXIS":"6925.370","TLE_LINE2":"2 44955  53.0538 299.0748 0001216  97.4691 262.6436 15.06393004183471","PERIAPSIS":"546.393","RCS_SIZE":"LARGE","SITE":"AFETR","DECAY_DATE":null,"CLASSIFICATION_TYPE":"U","EPOCH":"2023-05-03T20:41:20.423616","MEAN_MOTION_DDOT":"0.0000000000000","GP_ID":"231195853","PERIOD":"95.593","FILE":"3900281","ECCENTRICITY":"0.00012160","INCLINATION":"53.0538","NORAD_CAT_ID":"44955","ELEMENT_SET_NO":"999","APOAPSIS":"548.077","OBJECT_TYPE":"PAYLOAD","MEAN_MOTION_DOT":"-0.00004978","MEAN_ELEMENT_THEORY":"SGP4","RA_OF_ASC_NODE":"299.0748","REV_AT_EPOCH":"18347","BSTAR":"-0.00031562000000","MEAN_MOTION":"15.06393004","CENTER_NAME":"EARTH","OBJECT_ID":"2020-001AT","OBJECT_NAME":"STARLINK-1069"},{"TLE_LINE2":"2 44956  53.0528 299.0881 0000810  88.2601 271.8480 15.06430264183535","PERIAPSIS":"546.560","CLASSIFICATION_TYPE":"U","DECAY_DATE":null,"EPOCH":"2023-05-03T20:34:40.033920","SITE":"AFETR","RCS_SIZE":"LARGE","FILE":"3900281","GP_ID":"231195603","PERIOD":"95.590","MEAN_MOTION_DDOT":"0.0000000000000","ECCENTRICITY":"0.00008100","NORAD_CAT_ID":"44956","INCLINATION":"53.0528","TIME_SYSTEM":"UTC","COUNTRY_CODE":"US","MEAN_ANOMALY":"271.8480","EPHEMERIS_TYPE":"0","TLE_LINE1":"1 44956U 20001AU  23123.85740780  .00014986  00000-0  10220-2 0  9996","ARG_OF_PERICENTER":"88.2601","REF_FRAME":"TEME","LAUNCH_DATE":"2020-01-07","SEMIMAJOR_AXIS":"6925.256","BSTAR":"0.00102200000000","CENTER_NAME":"EARTH","MEAN_MOTION":"15.06430264","OBJECT_ID":"2020-001AU","OBJECT_NAME":"STARLINK-1070","ELEMENT_SET_NO":"999","APOAPSIS":"547.682","OBJECT_TYPE":"PAYLOAD","RA_OF_ASC_NODE":"299.0881","MEAN_ELEMENT_THEORY":"SGP4","REV_AT_EPOCH":"18353","MEAN_MOTION_DOT":"0.00014986"},{"COUNTRY_CODE":"US","MEAN_ANOMALY":"275.4498","EPHEMERIS_TYPE":"0","TIME_SYSTEM":"UTC","LAUNCH_DATE":"2020-01-07","SEMIMAJOR_AXIS":"6925.283","ARG_OF_PERICENTER":"84.6632","TLE_LINE1":"1 44957U 20001AV  23123.75052516  .00015222  00000-0  10380-2 0  9990","REF_FRAME":"TEME","PERIAPSIS":"546.291","TLE_LINE2":"2 44957  53.0524 299.5671 0001237  84.6632 275.4498 15.06421553183510","ECCENTRICITY":"0.00012370","INCLINATION":"53.0524","NORAD_CAT_ID":"44957","RCS_SIZE":"LARGE","SITE":"AFETR","DECAY_DATE":null,"EPOCH":"2023-05-03T18:00:45.373824","CLASSIFICATION_TYPE":"U","MEAN_MOTION_DDOT":"0.0000000000000","GP_ID":"231194854","PERIOD":"95.591","FILE":"3900281","APOAPSIS":"548.004","ELEMENT_SET_NO":"999","MEAN_MOTION_DOT":"0.00015222","RA_OF_ASC_NODE":"299.5671","REV_AT_EPOCH":"18351","MEAN_ELEMENT_THEORY":"SGP4","OBJECT_TYPE":"PAYLOAD","BSTAR":"0.00103800000000","MEAN_MOTION":"15.06421553","CENTER_NAME":"EARTH","OBJECT_ID":"2020-001AV","OBJECT_NAME":"STARLINK-1074"},{"APOAPSIS":"547.551","ELEMENT_SET_NO":"999","MEAN_ELEMENT_THEORY":"SGP4","RA_OF_ASC_NODE":"298.9090","REV_AT_EPOCH":"18353","MEAN_MOTION_DOT":"0.00014687","OBJECT_TYPE":"PAYLOAD","CENTER_NAME":"EARTH","MEAN_MOTION":"15.06442148","BSTAR":"0.00100170000000","OBJECT_NAME":"STARLINK-1076","OBJECT_ID":"2020-001AX","MEAN_ANOMALY":"283.9091","EPHEMERIS_TYPE":"0","COUNTRY_CODE":"US","TIME_SYSTEM":"UTC","SEMIMAJOR_AXIS":"6925.219","LAUNCH_DATE":"2020-01-07","REF_FRAME":"TEME","TLE_LINE1":"1 44959U 20001AX  23123.89889276  .00014687  00000-0  10017-2 0  9999","ARG_OF_PERICENTER":"76.1973","PERIAPSIS":"546.618","TLE_LINE2":"2 44959  53.0534 298.9090 0000674  76.1973 283.9091 15.06442148183537","NORAD_CAT_ID":"44959","INCLINATION":"53.0534","ECCENTRICITY":"0.00006740","GP_ID":"231195104","FILE":"3900281","PERIOD":"95.589","MEAN_MOTION_DDOT":"0.0000000000000","CLASSIFICATION_TYPE":"U","DECAY_DATE":null,"EPOCH":"2023-05-03T21:34:24.334464","SITE":"AFETR","RCS_SIZE":"LARGE"}];
